start=new Date('2023-07-02T00:00:00.000Z').valueOf();
sats=[{"INCLINATION":"53.2173","RA_OF_ASC_NODE":"32.0882","APOAPSIS":"540.470","TLE_LINE2":"2 53833  53.2173  32.0882 0001025  84.0197 276.0912 15.08834901 44054","OBJECT_NAME":"STARLINK-4771","CENTER_NAME":"EARTH","DECAY_DATE":null,"GP_ID":"234660855","FILE":"3947185","EPOCH":"2023-07-01T17:59:00.757248","PERIAPSIS":"539.052","MEAN_MOTION_DOT":"-0.00000885","COUNTRY_CODE":"US","LAUNCH_DATE":"2022-09-19","MEAN_MOTION":"15.08834901","MEAN_ANOMALY":"276.0912","SITE":"AFETR","PERIOD":"95.438","TLE_LINE1":"1 53833U 22114R   23182.74931432 -.00000885  00000-0 -37542-4 0  9999","SEMIMAJOR_AXIS":"6917.896","CLASSIFICATION_TYPE":"U","MEAN_ELEMENT_THEORY":"SGP4","MEAN_MOTION_DDOT":"0.0000000000000","BSTAR":"-0.00003754200000","REV_AT_EPOCH":"4405","RCS_SIZE":"LARGE","ELEMENT_SET_NO":"999","EPHEMERIS_TYPE":"0","NORAD_CAT_ID":"53833","REF_FRAME":"TEME","OBJECT_ID":"2022-114R","ECCENTRICITY":"0.00010250","TIME_SYSTEM":"UTC","OBJECT_TYPE":"PAYLOAD","ARG_OF_PERICENTER":"84.0197"},{"MEAN_ELEMENT_THEORY":"SGP4","MEAN_MOTION_DDOT":"0.0000000000000","REV_AT_EPOCH":"4405","BSTAR":"0.00003146000000","RCS_SIZE":"LARGE","EPHEMERIS_TYPE":"0","ELEMENT_SET_NO":"999","NORAD_CAT_ID":"53834","OBJECT_ID":"2022-114S","ECCENTRICITY":"0.00011290","REF_FRAME":"TEME","TIME_SYSTEM":"UTC","ARG_OF_PERICENTER":"83.3852","OBJECT_TYPE":"PAYLOAD","INCLINATION":"53.2169","RA_OF_ASC_NODE":"31.9759","TLE_LINE2":"2 53834  53.2169  31.9759 0001129  83.3852 276.7268 15.08840382 44057","APOAPSIS":"540.525","OBJECT_NAME":"STARLINK-4737","GP_ID":"234660850","DECAY_DATE":null,"FILE":"3947185","CENTER_NAME":"EARTH","PERIAPSIS":"538.963","EPOCH":"2023-07-01T17:32:28.641984","MEAN_MOTION_DOT":"0.00000213","COUNTRY_CODE":"US","MEAN_MOTION":"15.08840382","LAUNCH_DATE":"2022-09-19","MEAN_ANOMALY":"276.7268","SITE":"AFETR","PERIOD":"95.438","SEMIMAJOR_AXIS":"6917.879","TLE_LINE1":"1 53834U 22114S   23182.73088706  .00000213  00000-0  31460-4 0  9992","CLASSIFICATION_TYPE":"U"},{"TLE_LINE1":"1 53835U 22114T   23182.74194366 -.00000705  00000-0 -26195-4 0  9991","SEMIMAJOR_AXIS":"6917.893","CLASSIFICATION_TYPE":"U","SITE":"AFETR","PERIOD":"95.438","LAUNCH_DATE":"2022-09-19","MEAN_MOTION":"15.08835802","MEAN_ANOMALY":"269.8514","MEAN_MOTION_DOT":"-0.00000705","COUNTRY_CODE":"US","CENTER_NAME":"EARTH","FILE":"3947185","GP_ID":"234660851","DECAY_DATE":null,"EPOCH":"2023-07-01T17:48:23.932224","PERIAPSIS":"539.127","OBJECT_NAME":"STARLINK-4783","INCLINATION":"53.2181","RA_OF_ASC_NODE":"32.0447","APOAPSIS":"540.389","TLE_LINE2":"2 53835  53.2181  32.0447 0000912  90.2582 269.8514 15.08835802 44052","OBJECT_TYPE":"PAYLOAD","ARG_OF_PERICENTER":"90.2582","REF_FRAME":"TEME","ECCENTRICITY":"0.00009120","OBJECT_ID":"2022-114T","TIME_SYSTEM":"UTC","NORAD_CAT_ID":"53835","ELEMENT_SET_NO":"999","EPHEMERIS_TYPE":"0","RCS_SIZE":"LARGE","MEAN_MOTION_DDOT":"0.0000000000000","BSTAR":"-0.00002619500000","REV_AT_EPOCH":"4405","MEAN_ELEMENT_THEORY":"SGP4"},{"OBJECT_ID":"2022-114U","ECCENTRICITY":"0.00011550","REF_FRAME":"TEME","TIME_SYSTEM":"UTC","ARG_OF_PERICENTER":"93.9292","OBJECT_TYPE":"PAYLOAD","NORAD_CAT_ID":"53836","RCS_SIZE":"LARGE","EPHEMERIS_TYPE":"0","ELEMENT_SET_NO":"999","MEAN_ELEMENT_THEORY":"SGP4","MEAN_MOTION_DDOT":"0.0000000000000","REV_AT_EPOCH":"4419","BSTAR":"0.00001386300000","SITE":"AFETR","PERIOD":"95.438","SEMIMAJOR_AXIS":"6917.894","TLE_LINE1":"1 53836U 22114U   23182.77971304 -.00000067  00000-0  13863-4 0  9998","CLASSIFICATION_TYPE":"U","MEAN_MOTION_DOT":"-0.00000067","COUNTRY_CODE":"US","MEAN_MOTION":"15.08835623","LAUNCH_DATE":"2022-09-19","MEAN_ANOMALY":"266.1832","DECAY_DATE":null,"GP_ID":"234660854","FILE":"3947185","CENTER_NAME":"EARTH","PERIAPSIS":"538.960","EPOCH":"2023-07-01T18:42:47.206656","RA_OF_ASC_NODE":"22.2891","INCLINATION":"53.2178","TLE_LINE2":"2 53836  53.2178  22.2891 0001155  93.9292 266.1832 15.08835623 44190","APOAPSIS":"540.558","OBJECT_NAME":"STARLINK-4778"},{"EPOCH":"2023-07-01T17:37:46.990560","PERIAPSIS":"539.075","CENTER_NAME":"EARTH","GP_ID":"234660349","FILE":"3947185","DECAY_DATE":null,"APOAPSIS":"540.424","TLE_LINE2":"2 53837  53.2174  31.9964 0000975  85.4398 274.6706 15.08838665 44055","RA_OF_ASC_NODE":"31.9964","INCLINATION":"53.2174","OBJECT_NAME":"STARLINK-4776","PERIOD":"95.438","SITE":"AFETR","CLASSIFICATION_TYPE":"U","TLE_LINE1":"1 53837U 22114V   23182.73457165 -.00000603  00000-0 -19793-4 0  9994","SEMIMAJOR_AXIS":"6917.884","COUNTRY_CODE":"US","MEAN_MOTION_DOT":"-0.00000603","MEAN_ANOMALY":"274.6706","LAUNCH_DATE":"2022-09-19","MEAN_MOTION":"15.08838665","RCS_SIZE":"LARGE","ELEMENT_SET_NO":"999","EPHEMERIS_TYPE":"0","MEAN_ELEMENT_THEORY":"SGP4","BSTAR":"-0.00001979300000","REV_AT_EPOCH":"4405","MEAN_MOTION_DDOT":"0.0000000000000","TIME_SYSTEM":"UTC","REF_FRAME":"TEME","ECCENTRICITY":"0.00009750","OBJECT_ID":"2022-114V","OBJECT_TYPE":"PAYLOAD","ARG_OF_PERICENTER":"85.4398","NORAD_CAT_ID":"53837"},{"ELEMENT_SET_NO":"999","EPHEMERIS_TYPE":"0","RCS_SIZE":"LARGE","BSTAR":"0.00000203050000","REV_AT_EPOCH":"4419","MEAN_MOTION_DDOT":"0.0000000000000","MEAN_ELEMENT_THEORY":"SGP4","OBJECT_TYPE":"PAYLOAD","ARG_OF_PERICENTER":"101.9675","TIME_SYSTEM":"UTC","REF_FRAME":"TEME","ECCENTRICITY":"0.00011670","OBJECT_ID":"2022-114W","NORAD_CAT_ID":"53838","EPOCH":"2023-07-01T18:37:28.766496","PERIAPSIS":"538.950","CENTER_NAME":"EARTH","FILE":"3947185","GP_ID":"234660352","DECAY_DATE":null,"OBJECT_NAME":"STARLINK-4773","APOAPSIS":"540.565","TLE_LINE2":"2 53838  53.2176  22.2698 0001167 101.9675 258.1448 15.08836073 44197","RA_OF_ASC_NODE":"22.2698","INCLINATION":"53.2176","CLASSIFICATION_TYPE":"U","SEMIMAJOR_AXIS":"6917.892","TLE_LINE1":"1 53838U 22114W   23182.77602739 -.00000256  00000-0  20305-5 0  9993","PERIOD":"95.438","SITE":"AFETR","MEAN_ANOMALY":"258.1448","LAUNCH_DATE":"2022-09-19","MEAN_MOTION":"15.08836073","COUNTRY_CODE":"US","MEAN_MOTION_DOT":"-0.00000256"},{"ARG_OF_PERICENTER":"74.4544","OBJECT_TYPE":"PAYLOAD","OBJECT_ID":"2022-114X","ECCENTRICITY":"0.00008280","REF_FRAME":"TEME","TIME_SYSTEM":"UTC","NORAD_CAT_ID":"53839","EPHEMERIS_TYPE":"0","ELEMENT_SET_NO":"999","RCS_SIZE":"LARGE","MEAN_MOTION_DDOT":"0.0000000000000","REV_AT_EPOCH":"4419","BSTAR":"-0.00009564400000","MEAN_ELEMENT_THEORY":"SGP4","TLE_LINE1":"1 53839U 22114X   23182.78340624 -.00001809  00000-0 -95644-4 0  9990","SEMIMAJOR_AXIS":"6917.921","CLASSIFICATION_TYPE":"U","SITE":"AFETR","PERIOD":"95.438","MEAN_MOTION":"15.08826743","LAUNCH_DATE":"2022-09-19","MEAN_ANOMALY":"285.6540","MEAN_MOTION_DOT":"-0.00001809","COUNTRY_CODE":"US","FILE":"3947213","GP_ID":"234661297","DECAY_DATE":null,"CENTER_NAME":"EARTH","PERIAPSIS":"539.213","EPOCH":"2023-07-01T18:48:06.299136","OBJECT_NAME":"STARLINK-4784","INCLINATION":"53.2179","RA_OF_ASC_NODE":"22.3149","TLE_LINE2":"2 53839  53.2179  22.3149 0000828  74.4544 285.6540 15.08826743 44196","APOAPSIS":"540.359"},{"SITE":"AFETR","PERIOD":"95.438","SEMIMAJOR_AXIS":"6917.887","TLE_LINE1":"1 53840U 22114Y   23182.76593109  .00000526  00000-0  51158-4 0  9993","CLASSIFICATION_TYPE":"U","MEAN_MOTION_DOT":"0.00000526","COUNTRY_CODE":"US","MEAN_MOTION":"15.08837706","LAUNCH_DATE":"2022-09-19","MEAN_ANOMALY":"265.5019","GP_ID":"234661257","FILE":"3947213","DECAY_DATE":null,"CENTER_NAME":"EARTH","PERIAPSIS":"538.899","EPOCH":"2023-07-01T18:22:56.446176","RA_OF_ASC_NODE":"22.2052","INCLINATION":"53.2169","TLE_LINE2":"2 53840  53.2169  22.2052 0001234  94.6114 265.5019 15.08837706 44197","APOAPSIS":"540.606","OBJECT_NAME":"STARLINK-4766","OBJECT_ID":"2022-114Y","ECCENTRICITY":"0.00012340","REF_FRAME":"TEME","TIME_SYSTEM":"UTC","ARG_OF_PERICENTER":"94.6114","OBJECT_TYPE":"PAYLOAD","NORAD_CAT_ID":"53840","RCS_SIZE":"LARGE","EPHEMERIS_TYPE":"0","ELEMENT_SET_NO":"999","MEAN_ELEMENT_THEORY":"SGP4","MEAN_MOTION_DDOT":"0.0000000000000","REV_AT_EPOCH":"4419","BSTAR":"0.00005115800000"},{"NORAD_CAT_ID":"53841","ARG_OF_PERICENTER":"103.7555","OBJECT_TYPE":"PAYLOAD","TIME_SYSTEM":"UTC","ECCENTRICITY":"0.00013320","OBJECT_ID":"2022-114Z","REF_FRAME":"TEME","REV_AT_EPOCH":"4419","BSTAR":"0.00004605500000","MEAN_MOTION_DDOT":"0.0000000000000","MEAN_ELEMENT_THEORY":"SGP4","EPHEMERIS_TYPE":"0","ELEMENT_SET_NO":"999","RCS_SIZE":"LARGE","MEAN_ANOMALY":"256.3585","MEAN_MOTION":"15.08835871","LAUNCH_DATE":"2022-09-19","COUNTRY_CODE":"US","MEAN_MOTION_DOT":"0.00000445","CLASSIFICATION_TYPE":"U","SEMIMAJOR_AXIS":"6917.893","TLE_LINE1":"1 53841U 22114Z   23182.77234503  .00000445  00000-0  46055-4 0  9995","PERIOD":"95.438","SITE":"AFETR","OBJECT_NAME":"STARLINK-4750","TLE_LINE2":"2 53841  53.2180  22.2469 0001332 103.7555 256.3585 15.08835871 44190","APOAPSIS":"540.679","RA_OF_ASC_NODE":"22.2469","INCLINATION":"53.2180","PERIAPSIS":"538.837","EPOCH":"2023-07-01T18:32:10.610592","GP_ID":"234661304","DECAY_DATE":null,"FILE":"3947213","CENTER_NAME":"EARTH"},{"MEAN_MOTION_DDOT":"0.0000000000000","REV_AT_EPOCH":"4419","BSTAR":"0.00000127390000","MEAN_ELEMENT_THEORY":"SGP4","EPHEMERIS_TYPE":"0","ELEMENT_SET_NO":"999","RCS_SIZE":"LARGE","NORAD_CAT_ID":"53842","ARG_OF_PERICENTER":"75.1708","OBJECT_TYPE":"PAYLOAD","OBJECT_ID":"2022-114AA","ECCENTRICITY":"0.00008490","REF_FRAME":"TEME","TIME_SYSTEM":"UTC","OBJECT_NAME":"STARLINK-4754","RA_OF_ASC_NODE":"22.1560","INCLINATION":"53.2174","TLE_LINE2":"2 53842  53.2174  22.1560 0000849  75.1708 284.9378 15.08839085 44197","APOAPSIS":"540.336","DECAY_DATE":null,"GP_ID":"234661302","FILE":"3947213","CENTER_NAME":"EARTH","PERIAPSIS":"539.161","EPOCH":"2023-07-01T18:10:56.919072","MEAN_MOTION":"15.08839085","LAUNCH_DATE":"2022-09-19","MEAN_ANOMALY":"284.9378","MEAN_MOTION_DOT":"-0.00000267","COUNTRY_CODE":"US","SEMIMAJOR_AXIS":"6917.883","TLE_LINE1":"1 53842U 22114AA  23182.75760323 -.00000267  00000-0  12739-5 0  9994","CLASSIFICATION_TYPE":"U","SITE":"AFETR","PERIOD":"95.438"}];
